NORAD_CAT_ID,OBJECT_NAME,OBJECT_TYPE,EPOCH,MEAN_MOTION,ECCENTRICITY,INCLINATION,RA_OF_ASC_NODE,ARG_OF_PERICENTER,MEAN_ANOMALY,BSTAR,MEAN_MOTION_DOT,MEAN_MOTION_DDOT,TLE_LINE0,TLE_LINE1,TLE_LINE2,SEMIMAJOR_AXIS,PERIOD,APOGEE,PERIGEE,DECAYED
56798.0,STARLINK-6068,PAYLOAD,2023-08-21 07:20:41,15.69914774,0.0003181,69.9997,182.6581,270.6946,89.3885,-5.1122e-06,-8.27e-06,0.0,0 STARLINK-6068,1 56798U 23078AH  23233.30603146 -.00000827  00000-0 -51122-5 0  9996,2 56798  69.9997 182.6581 0003181 270.6946  89.3885 15.69914774 13181,6737.278,91.725,361.286,357.0,0.0
56798.0,STARLINK-6068,PAYLOAD,2023-08-22 00:09:57,15.69924209,0.0003866,69.9992,180.6888,280.6474,79.4286,2.8623e-06,1.31e-06,0.0,0 STARLINK-6068,1 56798U 23078AH  23234.00691019  .00000131  00000-0  28623-5 0  9996,2 56798  69.9992 180.6888 0003866 280.6474  79.4286 15.69924209 13292,6737.251,91.724,361.72,356.511,0.0
56798.0,STARLINK-6068,PAYLOAD,2023-08-23 06:44:59,15.69927029,0.0003644,70.0002,177.105,268.0405,92.0373,5.6986e-05,6.646e-05,0.0,0 STARLINK-6068,1 56798U 23078AH  23235.28124587  .00006646  00000-0  56986-4 0  9997,2 56798  70.0002 177.1050 0003644 268.0405  92.0373 15.69927029 13490,6737.243,91.724,361.563,356.653,0.0
56798.0,STARLINK-6068,PAYLOAD,2023-08-24 19:27:02,15.6993439,0.0003343,69.9998,172.8046,266.54,93.5413,6.4366e-05,7.537e-05,0.0,0 STARLINK-6068,1 56798U 23078AH  23236.81044475  .00007537  00000-0  64366-4 0  9995,2 56798  69.9998 172.8046 0003343 266.5400  93.5413 15.69934390 14145,6737.222,91.724,361.339,356.834,0.0
56798.0,STARLINK-6068,PAYLOAD,2023-08-25 06:09:18,15.69926736,0.0003742,69.9992,171.5505,269.2729,90.8038,2.861e-05,3.229e-05,0.0,0 STARLINK-6068,1 56798U 23078AH  23237.25646358  .00003229  00000-0  28610-4 0  9998,2 56798  69.9992 171.5505 0003742 269.2729  90.8038 15.69926736 13802,6737.244,91.724,361.63,356.588,0.0
56798.0,STARLINK-6068,PAYLOAD,2023-08-25 22:58:38,15.69799939,0.0003009,70.0001,169.5826,272.1611,87.924,-0.00029158,-0.00034945,0.0,0 STARLINK-6068,1 56798U 23078AH  23237.95739442 -.00034945  00000-0 -29158-3 0  9990,2 56798  70.0001 169.5826 0003009 272.1611  87.9240 15.69799939 13915,6737.606,91.731,361.499,357.444,0.0
56798.0,STARLINK-6068,PAYLOAD,2023-08-26 11:12:34,15.69965796,0.0003616,70.0005,168.1492,270.9111,89.167,0.00010039,0.00011897,0.0,0 STARLINK-6068,1 56798U 23078AH  23238.46706901  .00011897  00000-0  10039-3 0  9998,2 56798  70.0005 168.1492 0003616 270.9111  89.1670 15.69965796 14400,6737.132,91.722,361.433,356.561,0.0
56798.0,STARLINK-6068,PAYLOAD,2023-08-26 18:51:21,15.69921663,0.0003459,70.0011,167.254,270.0032,90.0767,4.057e-06,2.75e-06,0.0,0 STARLINK-6068,1 56798U 23078AH  23238.78566830  .00000275  00000-0  40570-5 0  9991,2 56798  70.0011 167.2540 0003459 270.0032  90.0767 15.69921663 14042,6737.258,91.724,361.454,356.793,0.0
56798.0,STARLINK-6068,PAYLOAD,2023-08-26 20:23:06,15.6992248,0.0003505,70.0021,167.077,266.9916,93.0878,1.6239e-05,1.74e-05,0.0,0 STARLINK-6068,1 56798U 23078AH  23238.84938580  .00001740  00000-0  16239-4 0  9995,2 56798  70.0021 167.0770 0003505 266.9916  93.0878 15.69922480 14463,6737.256,91.724,361.482,356.759,0.0
56798.0,STARLINK-6068,PAYLOAD,2023-08-27 07:05:50,15.69236198,0.0001803,69.9993,165.8202,233.0339,127.0691,-0.0016012,-0.00183264,0.0,0 STARLINK-6068,1 56798U 23078AH  23239.29572413 -.00183264  00000-0 -16012-2 0  9995,2 56798  69.9993 165.8202 0001803 233.0339 127.0691 15.69236198 14125,6739.22,91.764,362.3,359.87,0.0
56798.0,STARLINK-6068,PAYLOAD,2023-08-27 20:00:01,15.69949834,0.0003538,70.0002,164.3067,265.9036,253.5522,-0.0002051,-0.00024829,0.0,0 STARLINK-6068,1 56798U 23078AH  23239.83334491 -.00024829  00000-0 -20510-3 0  9997,2 56798  70.0002 164.3067 0003538 265.9036 253.5522 15.69949834 14202,6737.178,91.723,361.426,356.659,0.0
56798.0,STARLINK-6068,PAYLOAD,2023-08-27 22:00:00,15.69966947,0.0003599,70.0003,164.0724,267.1394,3.1512,-0.00059464,-0.0007124,0.0,0 STARLINK-6068,1 56798U 23078AH  23239.91667824 -.00071240  00000-0 -59464-3 0  9994,2 56798  70.0003 164.0724 0003599 267.1394   3.1512 15.69966947  5918,6737.129,91.722,361.418,356.569,0.0
56798.0,STARLINK-6068,PAYLOAD,2023-08-28 07:33:26,15.69895733,0.0002771,70.001,162.9549,288.8904,71.1991,-5.0047e-05,-6.218e-05,0.0,0 STARLINK-6068,1 56798U 23078AH  23240.31488435 -.00006218  00000-0 -50047-4 0  9991,2 56798  70.0010 162.9549 0002771 288.8904  71.1991 15.69895733 14286,6737.332,91.726,361.064,357.33,0.0
56798.0,STARLINK-6068,PAYLOAD,2023-08-28 12:08:40,15.69921568,0.0003565,69.9997,162.4153,268.0066,92.0721,2.649e-05,2.973e-05,0.0,0 STARLINK-6068,1 56798U 23078AH  23240.50602163  .00002973  00000-0  26490-4 0  9995,2 56798  69.9997 162.4153 0003565 268.0066  92.0721 15.69921568 14317,6737.258,91.724,361.525,356.722,0.0
56798.0,STARLINK-6068,PAYLOAD,2023-08-28 21:19:10,15.69931576,0.0003761,69.9999,161.3413,267.7588,92.3178,4.1295e-05,4.757e-05,0.0,0 STARLINK-6068,1 56798U 23078AH  23240.88831749  .00004757  00000-0  41295-4 0  9992,2 56798  69.9999 161.3413 0003761 267.7588  92.3178 15.69931576 14789,6737.23,91.724,361.629,356.561,0.0
56798.0,STARLINK-6068,PAYLOAD,2023-08-29 20:15:27,15.69925145,0.0003367,69.9996,158.6548,275.3908,84.6904,1.4102e-05,1.483e-05,0.0,0 STARLINK-6068,1 56798U 23078AH  23241.84407110  .00001483  00000-0  14102-4 0  9990,2 56798  69.9996 158.6548 0003367 275.3908  84.6904 15.69925145 14930,6737.248,91.724,361.382,356.845,0.0
56798.0,STARLINK-6068,PAYLOAD,2023-08-30 11:32:58,15.69924805,0.0003401,69.9996,156.8633,277.1978,82.8831,1.2603e-05,1.303e-05,0.0,0 STARLINK-6068,1 56798U 23078AH  23242.48123813  .00001303  00000-0  12603-4 0  9991,2 56798  69.9996 156.8633 0003401 277.1978  82.8831 15.69924805 15034,6737.249,91.724,361.405,356.823,0.0
56798.0,STARLINK-6068,PAYLOAD,2023-08-30 22:15:14,15.69924616,0.0003756,69.9996,155.6089,269.8852,90.1913,7.4979e-06,6.89e-06,0.0,0 STARLINK-6068,1 56798U 23078AH  23242.92725401  .00000689  00000-0  74979-5 0  9992,2 56798  69.9996 155.6089 0003756 269.8852  90.1913 15.69924616 14692,6737.25,91.724,361.645,356.584,0.0
56798.0,STARLINK-6068,PAYLOAD,2023-08-31 19:39:46,15.69928871,0.0003129,70.001,153.104,252.9127,107.1726,3.6253e-06,2.23e-06,0.0,0 STARLINK-6068,1 56798U 23078AH  23243.81928604  .00000223  00000-0  36253-5 0  9998,2 56798  70.0010 153.1040 0003129 252.9127 107.1726 15.69928871 15244,6737.237,91.724,361.211,356.994,0.0
56798.0,STARLINK-6068,PAYLOAD,2023-09-01 10:57:21,15.69841078,0.0002726,69.9982,151.3136,255.2723,104.817,-0.00012011,-0.00014578,0.0,0 STARLINK-6068,1 56798U 23078AH  23244.45649744 -.00014578  00000-0 -12011-3 0  9998,2 56798  69.9982 151.3136 0002726 255.2723 104.8170 15.69841078 14930,6737.489,91.729,361.19,357.517,0.0
56798.0,STARLINK-6068,PAYLOAD,2023-09-01 21:39:33,15.6992748,0.0003633,69.9979,150.0543,271.7533,88.3247,7.2355e-06,6.57e-06,0.0,0 STARLINK-6068,1 56798U 23078AH  23244.90247196  .00000657  00000-0  72355-5 0  9993,2 56798  69.9979 150.0543 0003633 271.7533  88.3247 15.69927480 15006,6737.241,91.724,361.554,356.659,0.0
56798.0,STARLINK-6068,PAYLOAD,2023-09-02 11:25:19,15.69931968,0.0003153,70.0001,148.4429,271.013,89.0705,2.1443e-05,2.367e-05,0.0,0 STARLINK-6068,1 56798U 23078AH  23245.47591966  .00002367  00000-0  21443-4 0  9994,2 56798  70.0001 148.4429 0003153 271.0130  89.0705 15.69931968 15500,6737.229,91.724,361.218,356.969,0.0
56798.0,STARLINK-6068,PAYLOAD,2023-09-02 17:32:09,15.7008209,0.0004289,69.9985,147.7256,276.7393,83.3314,0.00025931,0.00031294,0.0,0 STARLINK-6068,1 56798U 23078AH  23245.73067019  .00031294  00000-0  25931-3 0  9996,2 56798  69.9985 147.7256 0004289 276.7393  83.3314 15.70082090 15139,6736.799,91.715,361.554,355.775,0.0
56798.0,STARLINK-6068,PAYLOAD,2023-09-02 19:03:07,15.71179854,0.000928,69.9971,147.544,268.1923,91.8211,0.0023174,0.00304741,0.0,0 STARLINK-6068,1 56798U 23078AH  23245.79383989  .00304741  00000-0  23174-2 0  9995,2 56798  69.9971 147.5440 0009280 268.1923  91.8211 15.71179854 15559,6733.661,91.651,361.775,349.277,0.0
56798.0,STARLINK-6068,PAYLOAD,2023-09-03 04:00:00,15.69867901,0.0003531,69.9991,146.5001,272.9214,29.9603,0.0006578,0.00079452,0.0,0 STARLINK-6068,1 56798U 23078AH  23246.16667824  .00079452  00000-0  65780-3 0  9998,2 56798  69.9991 146.5001 0003531 272.9214  29.9603 15.69867901 15205,6737.412,91.727,361.656,356.898,0.0
56798.0,STARLINK-6068,PAYLOAD,2023-09-03 10:21:52,15.69622412,0.0002811,69.9998,145.7562,250.3122,109.7771,-0.00053483,-0.0006324,0.0,0 STARLINK-6068,1 56798U 23078AH  23246.43185360 -.00063240  00000-0 -53483-3 0  9995,2 56798  69.9998 145.7562 0002811 250.3122 109.7771 15.69622412 15246,6738.114,91.742,361.873,358.085,0.0
56798.0,STARLINK-6068,PAYLOAD,2023-09-03 22:35:36,15.69942463,0.0003408,69.9992,144.3218,262.3432,97.7377,2.8238e-05,3.186e-05,0.0,0 STARLINK-6068,1 56798U 23078AH  23246.94138978  .00003186  00000-0  28238-4 0  9996,2 56798  69.9992 144.3218 0003408 262.3432  97.7377 15.69942463 15321,6737.199,91.723,361.36,356.768,0.0
56798.0,STARLINK-6068,PAYLOAD,2023-09-04 03:10:52,15.69910276,0.000342,69.9983,143.7836,271.0824,88.9979,-3.4675e-05,-4.378e-05,0.0,0 STARLINK-6068,1 56798U 23078AH  23247.13255638 -.00004378  00000-0 -34675-4 0  9999,2 56798  69.9983 143.7836 0003420 271.0824  88.9979 15.69910276 15356,6737.291,91.725,361.46,356.852,0.0
56798.0,STARLINK-6068,PAYLOAD,2023-09-04 10:49:38,15.69905832,0.0003256,69.9982,142.889,263.9414,96.141,-3.3571e-05,-4.244e-05,0.0,0 STARLINK-6068,1 56798U 23078AH  23247.45114268 -.00004244  00000-0 -33571-4 0  9993,2 56798  69.9982 142.8890 0003256 263.9414  96.1410 15.69905832 15811,6737.303,91.725,361.362,356.975,0.0
56798.0,STARLINK-6068,PAYLOAD,2023-09-04 16:56:38,15.69918871,0.0003342,69.9986,142.1725,266.4786,93.6028,-9.8452e-06,-1.396e-05,0.0,0 STARLINK-6068,1 56798U 23078AH  23247.70600693 -.00001396  00000-0 -98452-5 0  9998,2 56798  69.9986 142.1725 0003342 266.4786  93.6028 15.69918871 15444,6737.266,91.724,361.383,356.88,0.0
